NORAD_CAT_ID,OBJECT_NAME,OBJECT_TYPE,EPOCH,MEAN_MOTION,ECCENTRICITY,INCLINATION,RA_OF_ASC_NODE,ARG_OF_PERICENTER,MEAN_ANOMALY,BSTAR,MEAN_MOTION_DOT,MEAN_MOTION_DDOT,TLE_LINE0,TLE_LINE1,TLE_LINE2,SEMIMAJOR_AXIS,PERIOD,APOGEE,PERIGEE,DECAYED
51791.0,STARLINK-3602,PAYLOAD,2024-01-08 05:12:00,15.08841343,0.0001518,53.2193,302.1788,99.2132,260.9032,7.3172e-05,8.77e-06,0.0,0 STARLINK-3602,1 51791U 22017Z   24008.21666957  .00000877  00000-0  73172-4 0  9997,2 51791  53.2193 302.1788 0001518  99.2132 260.9032 15.08841343104439,6917.876,95.437,540.791,538.691,0.0
51791.0,STARLINK-3602,PAYLOAD,2024-01-08 22:41:14,15.08849352,0.0001727,53.2199,298.9063,132.1153,227.9986,-2.8488e-05,-7.42e-06,0.0,0 STARLINK-3602,1 51791U 22017Z   24008.94530676 -.00000742  00000-0 -28488-4 0  9998,2 51791  53.2199 298.9063 0001727 132.1153 227.9986 15.08849352104546,6917.852,95.437,540.912,538.522,0.0
51791.0,STARLINK-3602,PAYLOAD,2024-01-09 01:52:00,15.08847853,0.0001557,53.2184,298.3133,116.1637,243.9516,5.5278e-05,5.92e-06,0.0,0 STARLINK-3602,1 51791U 22017Z   24009.07778626  .00000592  00000-0  55278-4 0  9990,2 51791  53.2184 298.3133 0001557 116.1637 243.9516 15.08847853104565,6917.856,95.437,540.798,538.644,0.0
51791.0,STARLINK-3602,PAYLOAD,2024-01-09 22:32:02,15.08840968,0.0001453,53.2186,294.4514,71.2141,288.9009,2.877e-05,1.7e-06,0.0,0 STARLINK-3602,1 51791U 22017Z   24009.93891482  .00000170  00000-0  28770-4 0  9990,2 51791  53.2186 294.4514 0001453  71.2141 288.9009 15.08840968104693,6917.877,95.437,540.748,538.737,0.0
51791.0,STARLINK-3602,PAYLOAD,2024-01-10 01:42:48,15.088435,0.0001479,53.2183,293.858,71.6813,288.434,7.4737e-05,9.02e-06,0.0,0 STARLINK-3602,1 51791U 22017Z   24010.07139211  .00000902  00000-0  74737-4 0  9999,2 51791  53.2183 293.8580 0001479  71.6813 288.4340 15.08843500104715,6917.87,95.437,540.758,538.712,0.0
51791.0,STARLINK-3602,PAYLOAD,2024-01-10 19:12:03,15.08835453,0.0001494,53.2186,290.5843,86.5544,273.562,7.3494e-05,8.82e-06,0.0,0 STARLINK-3602,1 51791U 22017Z   24010.80003724  .00000882  00000-0  73494-4 0  9995,2 51791  53.2186 290.5843 0001494  86.5544 273.5620 15.08835453104823,6917.894,95.438,540.793,538.726,0.0
51791.0,STARLINK-3602,PAYLOAD,2024-01-10 23:58:12,15.08844338,0.0001441,53.2179,289.6935,84.6509,275.4647,4.9846e-05,5.06e-06,0.0,0 STARLINK-3602,1 51791U 22017Z   24010.99875284  .00000506  00000-0  49846-4 0  9990,2 51791  53.2179 289.6935 0001441  84.6509 275.4647 15.08844338104853,6917.867,95.437,540.729,538.735,0.0
51791.0,STARLINK-3602,PAYLOAD,2024-01-11 19:02:50,15.0883992,0.0001504,53.2174,286.125,93.8378,266.2787,1.6989e-05,-1.8e-07,0.0,0 STARLINK-3602,1 51791U 22017Z   24011.79363855 -.00000018  00000-0  16989-4 0  9996,2 51791  53.2174 286.1250 0001504  93.8378 266.2787 15.08839920104973,6917.881,95.438,540.786,538.705,0.0
51791.0,STARLINK-3602,PAYLOAD,2024-01-11 22:13:36,15.08836802,0.0001369,53.2181,285.5296,84.2831,275.8317,6.5122e-05,7.49e-06,0.0,0 STARLINK-3602,1 51791U 22017Z   24011.92611913  .00000749  00000-0  65122-4 0  9995,2 51791  53.2181 285.5296 0001369  84.2831 275.8317 15.08836802104994,6917.89,95.438,540.702,538.808,0.0
51791.0,STARLINK-3602,PAYLOAD,2024-01-12 01:24:22,15.08838711,0.0001394,53.2176,284.936,85.1633,274.9518,8.1119e-05,1.003e-05,0.0,0 STARLINK-3602,1 51791U 22017Z   24012.05859781  .00001003  00000-0  81119-4 0  9995,2 51791  53.2176 284.9360 0001394  85.1633 274.9518 15.08838711105019,6917.884,95.438,540.714,538.785,0.0
51791.0,STARLINK-3602,PAYLOAD,2024-01-12 22:04:24,15.08835538,0.0001196,53.2168,281.0718,60.767,299.3441,4.4222e-05,4.16e-06,0.0,0 STARLINK-3602,1 51791U 22017Z   24012.91972433  .00000416  00000-0  44222-4 0  9991,2 51791  53.2168 281.0718 0001196  60.7670 299.3441 15.08835538105149,6917.894,95.438,540.586,538.932,0.0
51791.0,STARLINK-3602,PAYLOAD,2024-01-13 02:50:32,15.08856074,0.0001621,53.2173,280.1778,74.9029,285.2142,-8.4504e-05,-1.633e-05,0.0,0 STARLINK-3602,1 51791U 22017Z   24013.11843389 -.00001633  00000-0 -84504-4 0  9992,2 51791  53.2173 280.1778 0001621  74.9029 285.2142 15.08856074105172,6917.831,95.437,540.818,538.575,0.0
51791.0,STARLINK-3602,PAYLOAD,2024-01-13 17:09:01,15.08835772,0.0001208,53.217,277.5017,91.2735,268.8396,0.0001141,1.528e-05,0.0,0 STARLINK-3602,1 51791U 22017Z   24013.71460336  .00001528  00000-0  11410-3 0  9991,2 51791  53.2170 277.5017 0001208  91.2735 268.8396 15.08835772105262,6917.893,95.438,540.594,538.923,0.0
51791.0,STARLINK-3602,PAYLOAD,2024-01-14 02:41:19,15.08853299,0.0001227,53.2172,275.7171,91.6258,268.4875,0.00020338,2.952e-05,0.0,0 STARLINK-3602,1 51791U 22017Z   24014.11203015  .00002952  00000-0  20338-3 0  9996,2 51791  53.2172 275.7171 0001227  91.6258 268.4875 15.08853299105329,6917.84,95.437,540.554,538.856,0.0
51791.0,STARLINK-3602,PAYLOAD,2024-01-14 16:59:48,15.08843098,0.0001483,53.2156,273.0425,85.9586,274.1576,7.8464e-05,9.61e-06,0.0,0 STARLINK-3602,1 51791U 22017Z   24014.70820037  .00000961  00000-0  78464-4 0  9992,2 51791  53.2156 273.0425 0001483  85.9586 274.1576 15.08843098105416,6917.871,95.437,540.762,538.71,0.0
51791.0,STARLINK-3602,PAYLOAD,2024-01-14 21:45:57,15.08846626,0.0001674,53.2159,272.1492,100.17,259.9481,0.00011557,1.552e-05,0.0,0 STARLINK-3602,1 51791U 22017Z   24014.90691741  .00001552  00000-0  11557-3 0  9998,2 51791  53.2159 272.1492 0001674 100.1700 259.9481 15.08846626105442,6917.86,95.437,540.883,538.567,0.0
51791.0,STARLINK-3602,PAYLOAD,2024-01-15 00:56:43,15.08851391,0.0001467,53.2158,271.5553,87.622,272.494,0.00019112,2.756e-05,0.0,0 STARLINK-3602,1 51791U 22017Z   24015.03939522  .00002756  00000-0  19112-3 0  9997,2 51791  53.2158 271.5553 0001467  87.6220 272.4940 15.08851391105465,6917.846,95.437,540.725,538.696,0.0
51791.0,STARLINK-3602,PAYLOAD,2024-01-15 20:01:21,15.08842459,0.0001437,53.2168,267.9847,69.9111,290.2035,-5.7054e-05,-1.196e-05,0.0,0 STARLINK-3602,1 51791U 22017Z   24015.83427975 -.00001196  00000-0 -57054-4 0  9996,2 51791  53.2168 267.9847 0001437  69.9111 290.2035 15.08842459105581,6917.873,95.437,540.732,538.744,0.0
51791.0,STARLINK-3602,PAYLOAD,2024-01-16 02:22:53,15.08850182,0.0001403,53.2176,266.7945,94.0954,266.0198,1.4686e-05,-5.4e-07,0.0,0 STARLINK-3602,1 51791U 22017Z   24016.09923475 -.00000054  00000-0  14686-4 0  9996,2 51791  53.2176 266.7945 0001403  94.0954 266.0198 15.08850182105621,6917.849,95.437,540.685,538.744,0.0
51791.0,STARLINK-3602,PAYLOAD,2024-01-16 19:52:08,15.08843771,0.000181,53.2159,263.5236,112.352,247.7664,2.3613e-05,8.8e-07,0.0,0 STARLINK-3602,1 51791U 22017Z   24016.82787685  .00000088  00000-0  23613-4 0  9994,2 51791  53.2159 263.5236 0001810 112.3520 247.7664 15.08843771105737,6917.869,95.437,540.986,538.482,0.0
51791.0,STARLINK-3602,PAYLOAD,2024-01-16 21:27:31,15.08844289,0.0001816,53.216,263.2262,112.8989,247.2195,3.5688e-05,2.8e-06,0.0,0 STARLINK-3602,1 51791U 22017Z   24016.89411644  .00000280  00000-0  35688-4 0  9999,2 51791  53.2160 263.2262 0001816 112.8989 247.2195 15.08844289105745,6917.867,95.437,540.989,538.476,0.0
51791.0,STARLINK-3602,PAYLOAD,2024-01-16 23:02:54,15.08844904,0.0001787,53.2162,262.9281,113.4022,246.7158,5.0609e-05,5.18e-06,0.0,0 STARLINK-3602,1 51791U 22017Z   24016.96035603  .00000518  00000-0  50609-4 0  9998,2 51791  53.2162 262.9281 0001787 113.4022 246.7158 15.08844904105754,6917.865,95.437,540.967,538.494,0.0
51791.0,STARLINK-3602,PAYLOAD,2024-01-17 19:42:56,15.08833452,0.00016,53.2165,259.0593,97.7078,262.4096,2.0652e-05,4.1e-07,0.0,0 STARLINK-3602,1 51791U 22017Z   24017.82148593  .00000041  00000-0  20652-4 0  9993,2 51791  53.2165 259.0593 0001600  97.7078 262.4096 15.08833452105885,6917.9,95.438,540.872,538.659,0.0
51791.0,STARLINK-3602,PAYLOAD,2024-01-17 22:53:42,15.08833549,0.0001528,53.2173,258.4703,95.4523,264.6644,-2.2652e-05,-6.48e-06,0.0,0 STARLINK-3602,1 51791U 22017Z   24017.95396977 -.00000648  00000-0 -22652-4 0  9995,2 51791  53.2173 258.4703 0001528  95.4523 264.6644 15.08833549105902,6917.9,95.438,540.822,538.708,0.0
51791.0,STARLINK-3602,PAYLOAD,2024-01-18 14:47:34,15.08833753,0.0001631,53.2167,255.4933,100.1307,259.9869,4.9854e-05,5.05e-06,0.0,0 STARLINK-3602,1 51791U 22017Z   24018.61637016  .00000505  00000-0  49854-4 0  9994,2 51791  53.2167 255.4933 0001631 100.1307 259.9869 15.08833753106001,6917.899,95.438,540.893,538.636,0.0
51791.0,STARLINK-3602,PAYLOAD,2024-01-18 21:09:09,15.08794705,0.0001515,53.2176,254.3176,76.697,283.4191,-0.00026336,-4.472e-05,0.0,0 STARLINK-3602,1 51791U 22017Z   24018.88136353 -.00004472  00000-0 -26336-3 0  9999,2 51791  53.2176 254.3176 0001515  76.6970 283.4191 15.08794705106049,6918.019,95.44,540.932,538.836,0.0
51791.0,STARLINK-3602,PAYLOAD,2024-01-19 01:55:23,15.08745032,0.0001877,53.2171,253.4181,79.9504,280.17,-0.00071625,-0.0001164,0.0,0 STARLINK-3602,1 51791U 22017Z   24019.08013794 -.00011640  00000-0 -71625-3 0  9991,2 51791  53.2171 253.4181 0001877  79.9504 280.1700 15.08745032106072,6918.171,95.444,541.334,538.737,0.0
51791.0,STARLINK-3602,PAYLOAD,2024-01-19 14:38:27,15.08787363,0.0001809,53.2165,251.0362,84.9335,275.1864,-0.00025137,-4.281e-05,0.0,0 STARLINK-3602,1 51791U 22017Z   24019.61003641 -.00004281  00000-0 -25137-3 0  9990,2 51791  53.2165 251.0362 0001809  84.9335 275.1864 15.08787363106150,6918.041,95.441,541.158,538.655,0.0
51791.0,STARLINK-3602,PAYLOAD,2024-01-19 19:24:33,15.08835036,0.000171,53.217,250.1447,98.2996,261.819,0.00015886,2.241e-05,0.0,0 STARLINK-3602,1 51791U 22017Z   24019.80871877  .00002241  00000-0  15886-3 0  9997,2 51791  53.2170 250.1447 0001710  98.2996 261.8190 15.08835036106180,6917.896,95.438,540.944,538.578,0.0
51791.0,STARLINK-3602,PAYLOAD,2024-01-19 22:35:19,15.08838595,0.0001491,53.2167,249.5492,88.7651,271.3511,0.00018946,2.728e-05,0.0,0 STARLINK-3602,1 51791U 22017Z   24019.94119679  .00002728  00000-0  18946-3 0  9997,2 51791  53.2167 249.5492 0001491  88.7651 271.3511 15.08838595106205,6917.885,95.438,540.781,538.718,0.0
